[{"OBJECT_NAME":"COSMOS 2350","OBJECT_ID":"1998-025A","EPOCH":"2026-03-02T21:02:21.694272","MEAN_MOTION":1.00284431,"ECCENTRICITY":0.0004675,"INCLINATION":13.9243,"RA_OF_ASC_NODE":4.62,"ARG_OF_PERICENTER":195.1551,"MEAN_ANOMALY":348.5102,"EPHEMERIS_TYPE":0,"CLASSIFICATION_TYPE":"U","NORAD_CAT_ID":25315,"ELEMENT_SET_NO":999,"REV_AT_EPOCH":10194,"BSTAR":0,"MEAN_MOTION_DOT":-9.4e-7,"MEAN_MOTION_DDOT":0},{"OBJECT_NAME":"SL-12 R/B(2)","OBJECT_ID":"1998-025D","EPOCH":"2026-03-02T23:43:52.606848","MEAN_MOTION":1.00043048,"ECCENTRICITY":0.0029204,"INCLINATION":13.9481,"RA_OF_ASC_NODE":4.6572,"ARG_OF_PERICENTER":131.6648,"MEAN_ANOMALY":243.6077,"EPHEMERIS_TYPE":0,"CLASSIFICATION_TYPE":"U","NORAD_CAT_ID":25318,"ELEMENT_SET_NO":999,"REV_AT_EPOCH":10171,"BSTAR":0,"MEAN_MOTION_DOT":7.3e-7,"MEAN_MOTION_DDOT":0},{"OBJECT_NAME":"BADR-3 (ARABSAT-3A)","OBJECT_ID":"1999-009A","EPOCH":"2026-03-02T23:47:52.224288","MEAN_MOTION":1.00124654,"ECCENTRICITY":0.0007388,"INCLINATION":11.7628,"RA_OF_ASC_NODE":33.33,"ARG_OF_PERICENTER":316.2203,"MEAN_ANOMALY":44.8595,"EPHEMERIS_TYPE":0,"CLASSIFICATION_TYPE":"U","NORAD_CAT_ID":25638,"ELEMENT_SET_NO":999,"REV_AT_EPOCH":9890,"BSTAR":0,"MEAN_MOTION_DOT":1.7e-7,"MEAN_MOTION_DDOT":0},{"OBJECT_NAME":"RADUGA-1 4","OBJECT_ID":"1999-010A","EPOCH":"2026-03-02T18:22:38.635680","MEAN_MOTION":1.00262606,"ECCENTRICITY":0.00074644,"INCLINATION":15.6114,"RA_OF_ASC_NODE":2.5126,"ARG_OF_PERICENTER":287.1609,"MEAN_ANOMALY":260.2332,"EPHEMERIS_TYPE":0,"CLASSIFICATION_TYPE":"U","NORAD_CAT_ID":25642,"ELEMENT_SET_NO":999,"REV_AT_EPOCH":9888,"BSTAR":0,"MEAN_MOTION_DOT":-3.82e-6,"MEAN_MOTION_DDOT":0},{"OBJECT_NAME":"TELKOM 1","OBJECT_ID":"1999-042A","EPOCH":"2026-03-03T00:46:54.065280","MEAN_MOTION":1.00249407,"ECCENTRICITY":0.0017399,"INCLINATION":7.418,"RA_OF_ASC_NODE":67.5178,"ARG_OF_PERICENTER":256.6338,"MEAN_ANOMALY":292.2944,"EPHEMERIS_TYPE":0,"CLASSIFICATION_TYPE":"U","NORAD_CAT_ID":25880,"ELEMENT_SET_NO":999,"REV_AT_EPOCH":9732,"BSTAR":0,"MEAN_MOTION_DOT":-1.83e-6,"MEAN_MOTION_DDOT":0},{"OBJECT_NAME":"ABS-7","OBJECT_ID":"1999-046A","EPOCH":"2026-03-03T03:04:45.706656","MEAN_MOTION":0.99967828,"ECCENTRICITY":0.0004844,"INCLINATION":6.2108,"RA_OF_ASC_NODE":72.0491,"ARG_OF_PERICENTER":246.7291,"MEAN_ANOMALY":94.8654,"EPHEMERIS_TYPE":0,"CLASSIFICATION_TYPE":"U","NORAD_CAT_ID":25894,"ELEMENT_SET_NO":999,"REV_AT_EPOCH":9601,"BSTAR":0,"MEAN_MOTION_DOT":1.1e-6,"MEAN_MOTION_DDOT":0},{"OBJECT_NAME":"YAMAL 102","OBJECT_ID":"1999-047B","EPOCH":"2026-03-03T02:08:58.553376","MEAN_MOTION":0.99995117,"ECCENTRICITY":0.0005293,"INCLINATION":13.6079,"RA_OF_ASC_NODE":13.4802,"ARG_OF_PERICENTER":331.7845,"MEAN_ANOMALY":219.5606,"EPHEMERIS_TYPE":0,"CLASSIFICATION_TYPE":"U","NORAD_CAT_ID":25897,"ELEMENT_SET_NO":999,"REV_AT_EPOCH":9693,"BSTAR":0,"MEAN_MOTION_DOT":-2.0e-8,"MEAN_MOTION_DDOT":0},{"OBJECT_NAME":"ABS-6","OBJECT_ID":"1999-053A","EPOCH":"2026-03-02T18:08:51.440352","MEAN_MOTION":1.00272451,"ECCENTRICITY":0.00031325,"INCLINATION":0.0503,"RA_OF_ASC_NODE":261.4494,"ARG_OF_PERICENTER":58.9705,"MEAN_ANOMALY":271.3401,"EPHEMERIS_TYPE":0,"CLASSIFICATION_TYPE":"U","NORAD_CAT_ID":25924,"ELEMENT_SET_NO":999,"REV_AT_EPOCH":9677,"BSTAR":0,"MEAN_MOTION_DOT":-1.36e-6,"MEAN_MOTION_DDOT":0},{"OBJECT_NAME":"UFO 10 (USA 146)","OBJECT_ID":"1999-063A","EPOCH":"2026-03-02T17:25:44.939712","MEAN_MOTION":1.00274051,"ECCENTRICITY":0.00053155,"INCLINATION":9.8459,"RA_OF_ASC_NODE":27.7994,"ARG_OF_PERICENTER":294.1021,"MEAN_ANOMALY":77.1937,"EPHEMERIS_TYPE":0,"CLASSIFICATION_TYPE":"U","NORAD_CAT_ID":25967,"ELEMENT_SET_NO":999,"REV_AT_EPOCH":9628,"BSTAR":0,"MEAN_MOTION_DOT":-1.99e-6,"MEAN_MOTION_DDOT":0},{"OBJECT_NAME":"GALAXY 10R (G-10R)","OBJECT_ID":"2000-002A","EPOCH":"2026-03-02T10:44:09.425184","MEAN_MOTION":0.99640025,"ECCENTRICITY":0.0004102,"INCLINATION":12.0052,"RA_OF_ASC_NODE":32.0241,"ARG_OF_PERICENTER":207.9633,"MEAN_ANOMALY":21.2483,"EPHEMERIS_TYPE":0,"CLASSIFICATION_TYPE":"U","NORAD_CAT_ID":26056,"ELEMENT_SET_NO":999,"REV_AT_EPOCH":9526,"BSTAR":0,"MEAN_MOTION_DOT":-2.64e-6,"MEAN_MOTION_DDOT":0},{"OBJECT_NAME":"GARUDA 1","OBJECT_ID":"2000-011A","EPOCH":"2026-03-02T23:56:06.434016","MEAN_MOTION":0.99904491,"ECCENTRICITY":0.0005289,"INCLINATION":9.3931,"RA_OF_ASC_NODE":65.1802,"ARG_OF_PERICENTER":244.4006,"MEAN_ANOMALY":115.8278,"EPHEMERIS_TYPE":0,"CLASSIFICATION_TYPE":"U","NORAD_CAT_ID":26089,"ELEMENT_SET_NO":999,"REV_AT_EPOCH":4059,"BSTAR":0,"MEAN_MOTION_DOT":-1.17e-6,"MEAN_MOTION_DDOT":0},{"OBJECT_NAME":"SL-12 R/B(2)","OBJECT_ID":"2000-013D","EPOCH":"2026-03-02T11:50:38.609088","MEAN_MOTION":1.00758856,"ECCENTRICITY":0.00063611,"INCLINATION":14.3075,"RA_OF_ASC_NODE":1.631,"ARG_OF_PERICENTER":60.6793,"MEAN_ANOMALY":125.4403,"EPHEMERIS_TYPE":0,"CLASSIFICATION_TYPE":"U","NORAD_CAT_ID":26101,"ELEMENT_SET_NO":999,"REV_AT_EPOCH":9556,"BSTAR":0,"MEAN_MOTION_DOT":6.1e-7,"MEAN_MOTION_DDOT":0},{"OBJECT_NAME":"ASIASTAR","OBJECT_ID":"2000-016A","EPOCH":"2026-03-02T23:10:18.324768","MEAN_MOTION":1.00272061,"ECCENTRICITY":0.0004529,"INCLINATION":8.8836,"RA_OF_ASC_NODE":59.2783,"ARG_OF_PERICENTER":289.3593,"MEAN_ANOMALY":264.6872,"EPHEMERIS_TYPE":0,"CLASSIFICATION_TYPE":"U","NORAD_CAT_ID":26107,"ELEMENT_SET_NO":999,"REV_AT_EPOCH":9485,"BSTAR":0,"MEAN_MOTION_DOT":-3.45e-6,"MEAN_MOTION_DDOT":0},{"OBJECT_NAME":"GALAXY 4R (G-4R)","OBJECT_ID":"2000-020A","EPOCH":"2026-03-02T07:52:38.595936","MEAN_MOTION":0.99836246,"ECCENTRICITY":0.00067164,"INCLINATION":12.6062,"RA_OF_ASC_NODE":24.8538,"ARG_OF_PERICENTER":246.7367,"MEAN_ANOMALY":310.7674,"EPHEMERIS_TYPE":0,"CLASSIFICATION_TYPE":"U","NORAD_CAT_ID":26298,"ELEMENT_SET_NO":999,"REV_AT_EPOCH":9455,"BSTAR":0,"MEAN_MOTION_DOT":-2.94e-6,"MEAN_MOTION_DDOT":0},{"OBJECT_NAME":"USA 149 (DSP 20)","OBJECT_ID":"2000-024A","EPOCH":"2026-03-03T01:18:28.538208","MEAN_MOTION":1.00275437,"ECCENTRICITY":0.0002179,"INCLINATION":13.0908,"RA_OF_ASC_NODE":12.5975,"ARG_OF_PERICENTER":1.967,"MEAN_ANOMALY":0.4931,"EPHEMERIS_TYPE":0,"CLASSIFICATION_TYPE":"U","NORAD_CAT_ID":26356,"ELEMENT_SET_NO":999,"REV_AT_EPOCH":3185,"BSTAR":0,"MEAN_MOTION_DOT":8.5e-7,"MEAN_MOTION_DDOT":0},{"OBJECT_NAME":"IUS R/B(2)","OBJECT_ID":"2000-024D","EPOCH":"2026-03-02T01:33:57.650112","MEAN_MOTION":0.99711474,"ECCENTRICITY":0.0005457,"INCLINATION":13.2403,"RA_OF_ASC_NODE":13.3389,"ARG_OF_PERICENTER":181.6468,"MEAN_ANOMALY":178.3726,"EPHEMERIS_TYPE":0,"CLASSIFICATION_TYPE":"U","NORAD_CAT_ID":26359,"ELEMENT_SET_NO":999,"REV_AT_EPOCH":2430,"BSTAR":0,"MEAN_MOTION_DOT":-1.5e-7,"MEAN_MOTION_DDOT":0},{"OBJECT_NAME":"GORIZONT 33","OBJECT_ID":"2000-029A","EPOCH":"2026-03-02T18:47:41.811648","MEAN_MOTION":1.00158109,"ECCENTRICITY":0.00032056,"INCLINATION":13.8228,"RA_OF_ASC_NODE":7.5741,"ARG_OF_PERICENTER":262.002,"MEAN_ANOMALY":267.1469,"EPHEMERIS_TYPE":0,"CLASSIFICATION_TYPE":"U","NORAD_CAT_ID":26372,"ELEMENT_SET_NO":999,"REV_AT_EPOCH":9436,"BSTAR":0,"MEAN_MOTION_DOT":-2.68e-6,"MEAN_MOTION_DDOT":0}]
