COSMOS 2350             
1 25315U 98025A   26061.87663998 -.00000094  00000+0  00000+0 0  9993
2 25315  13.9243   4.6200 0004675 195.1551 348.5102  1.00284431101942
SL-12 R/B(2)            
1 25318U 98025D   26061.98880332  .00000073  00000+0  00000+0 0  9997
2 25318  13.9481   4.6572 0029204 131.6648 243.6077  1.00043048101716
BADR-3 (ARABSAT-3A)     
1 25638U 99009A   26061.99157667  .00000017  00000+0  00000+0 0  9992
2 25638  11.7628  33.3300 0007388 316.2203  44.8595  1.00124654 98900
RADUGA-1 4              
1 25642U 99010A   26061.76572495 -.00000382  00000+0  00000+0 0  9990
2 25642  15.6114   2.5126 0007464 287.1609 260.2332  1.00262606 98883
TELKOM 1                
1 25880U 99042A   26062.03257020 -.00000183  00000+0  00000+0 0  9993
2 25880   7.4180  67.5178 0017399 256.6338 292.2944  1.00249407 97321
ABS-7                   
1 25894U 99046A   26062.12830679  .00000110  00000+0  00000+0 0  9998
2 25894   6.2108  72.0491 0004844 246.7291  94.8654  0.99967828 96011
YAMAL 102               
1 25897U 99047B   26062.08956659 -.00000002  00000+0  00000+0 0  9995
2 25897  13.6079  13.4802 0005293 331.7845 219.5606  0.99995117 96933
ABS-6                   
1 25924U 99053A   26061.75615093 -.00000136  00000+0  00000+0 0  9998
2 25924   0.0503 261.4494 0003132  58.9705 271.3401  1.00272451 96774
UFO 10 (USA 146)        
1 25967U 99063A   26061.72621458 -.00000199  00000+0  00000+0 0  9994
2 25967   9.8459  27.7994 0005315 294.1021  77.1937  1.00274051 96286
GALAXY 10R (G-10R)      
1 26056U 00002A   26061.44733131 -.00000264  00000+0  00000+0 0  9993
2 26056  12.0052  32.0241 0004102 207.9633  21.2483  0.99640025 95267
GARUDA 1                
1 26089U 00011A   26061.99729669 -.00000117  00000+0  00000+0 0  9997
2 26089   9.3931  65.1802 0005289 244.4006 115.8278  0.99904491 40593
SL-12 R/B(2)            
1 26101U 00013D   26061.49350242  .00000061  00000+0  00000+0 0  9993
2 26101  14.3075   1.6310 0006361  60.6793 125.4403  1.00758856 95564
ASIASTAR                
1 26107U 00016A   26061.96548987 -.00000345  00000+0  00000+0 0  9995
2 26107   8.8836  59.2783 0004529 289.3593 264.6872  1.00272061 94854
GALAXY 4R (G-4R)        
1 26298U 00020A   26061.32822449 -.00000294  00000+0  00000+0 0  9992
2 26298  12.6062  24.8538 0006716 246.7367 310.7674  0.99836246 94559
USA 149 (DSP 20)        
1 26356U 00024A   26062.05449697  .00000085  00000+0  00000+0 0  9999
2 26356  13.0908  12.5975 0002179   1.9670   0.4931  1.00275437 31859
IUS R/B(2)              
1 26359U 00024D   26061.06525058 -.00000015  00000+0  00000+0 0  9992
2 26359  13.2403  13.3389 0005457 181.6468 178.3726  0.99711474 24307
GORIZONT 33             
1 26372U 00029A   26061.78312282 -.00000268  00000+0  00000+0 0  9994
2 26372  13.8228   7.5741 0003205 262.0020 267.1469  1.00158109 94364
